LIZZIESAT-2 (LS-2)      
1 62383U 24247G   26068.49140277  .00009388  00000+0  34517-3 0  9997
2 62383  44.9909 117.0823 0004092 327.5136  32.5495 15.28222796 67716
STARLINK-35350          
1 66187U 25243L   26068.71342950  .00027287  00000+0  93008-3 0  9995
2 66187  53.1578 245.4147 0000871  89.8778 270.2322 15.30198438 20652
